{"version": 0.6, "generator": "Overpass API 0.7.61.5 4133829e", "osm3s": {"timestamp_osm_base": "2024-03-08T16:06:40Z", "copyright": "The data included in this document is from www.openstreetmap.org. The data is made available under ODbL."}, "elements": [{"type": "node", "id": 281197288, "lat": 53.3339771, "lon": -6.3785572, "tags": {"addr:street": "Park West Avenue", "name": "Park West and Cherry Orchard", "name:en": "Park West and Cherry Orchard", "name:ga": "P\u00e1irc an Iarthair agus Gort na Sil\u00edn\u00ed", "network": "Dublin Commuter", "note": "PWESF when bypassed on the fast line", "operator": "Irish Rail", "public_transport": "station", "railway": "station", "railway:ref": "CHORC", "train": "yes", "wheelchair": "yes"}}, {"type": "node", "id": 5403851296, "lat": 53.3629491, "lon": -6.2272787, "tags": {"addr:street": "Clontarf Road", "name": "Clontarf Road", "name:en": "Clontarf Road", "name:ga": "B\u00f3thar Chluain Tarbh", "network": "Commuter", "network:wikidata": "Q5155093", "operator": "Iarnr\u00f3d \u00c9ireann", "operator:en": "Irish Rail", "operator:ga": "Iarnr\u00f3d \u00c9ireann", "operator:wikidata": "Q73043", "public_transport": "station", "railway": "station", "railway:ref": "CTARF", "train": "yes", "wheelchair": "yes", "wikidata": "Q2979578", "wikipedia": "en:Clontarf Road railway station"}}, {"type": "node", "id": 5403871877, "lat": 53.3509039, "lon": -6.2393672, "tags": {"addr:city": "Dublin", "addr:street": "Sheriff Street Upper", "name": "Docklands", "name:en": "Docklands", "name:ga": "Dugthailte", "network": "Dublin Commuter", "opening_hours": "Mo-Fr 07:00-10:00, 15:00-19:00", "operator": "Irish Rail", "phone": "+353 1 8286380", "platforms": "2", "public_transport": "station", "railway": "station", "railway:ref": "DCKLS", "train": "yes", "website": "https://www.irishrail.ie/travel-information/docklands", "wheelchair": "yes", "wikidata": "Q3968799", "wikipedia": "en:Docklands railway station"}}, {"type": "node", "id": 5403904825, "lat": 53.3783621, "lon": -6.1924014, "tags": {"name": "Harmonstown", "name:en": "Harmonstown", "name:ga": "Baile Hearman", "network": "Commuter", "network:wikidata": "Q5155093", "operator": "Iarnr\u00f3d \u00c9ireann", "operator:en": "Irish Rail", "operator:ga": "Iarnr\u00f3d \u00c9ireann", "operator:wikidata": "Q73043", "public_transport": "station", "railway": "station", "railway:ref": "HTOWN", "train": "yes", "wheelchair": "yes", "wikidata": "Q3127545", "wikipedia": "en:Harmonstown railway station"}}, {"type": "node", "id": 5519210321, "lat": 53.3816065, "lon": -6.1761274, "tags": {"name": "Raheny", "name:en": "Raheny", "name:ga": "R\u00e1th Eanaigh", "network": "Commuter", "network:wikidata": "Q5155093", "operator": "Iarnr\u00f3d \u00c9ireann", "operator:en": "Irish Rail", "operator:ga": "Iarnr\u00f3d \u00c9ireann", "operator:wikidata": "Q73043", "public_transport": "station", "railway": "station", "railway:ref": "RAHNY", "train": "yes", "wikidata": "Q3417567", "wikipedia": "en:Raheny railway station"}}, {"type": "node", "id": 5519213828, "lat": 53.3872797, "lon": -6.1614803, "tags": {"addr:street": "Briarfield Road", "name": "Kilbarrack", "name:en": "Kilbarrack", "name:ga": "Cill Bharrog", "network": "Commuter", "network:wikidata": "Q5155093", "operator": "Iarnr\u00f3d \u00c9ireann", "operator:en": "Irish Rail", "operator:ga": "Iarnr\u00f3d \u00c9ireann", "operator:wikidata": "Q73043", "public_transport": "station", "railway": "station", "railway:ref": "KBRCK", "train": "yes", "wheelchair": "yes", "wikidata": "Q2003583", "wikipedia": "en:Kilbarrack railway station"}}, {"type": "node", "id": 6854406241, "lat": 53.3463091, "lon": -6.2948415, "tags": {"addr:city": "Dublin", "addr:street": "Saint John's Road West", "name": "Dublin Heuston", "name:en": "Dublin Heuston", "name:ga": "Baile \u00c1tha Cliath Heuston", "network": "InterCity;Dublin Commuter", "note": "There's two reference systems used: a five-letter code and a numerical identifier. I've used the former (HSTON), the latter is 1. Both can be found on the Wikipedia station list - https://en.wikipedia.org/wiki/List_of_railway_stations_in_Ireland", "old_name": "Dublin Kingsbridge", "operator": "Irish Rail", "passenger_information_display": "yes", "phone": "+353 1 7032132", "platforms": "9", "public_transport": "station", "railway": "station", "railway:ref": "HSTON", "short_name": "Heuston", "start_date": "1846", "train": "yes", "website": "https://www.irishrail.ie/travel-information/dublin-heuston", "wheelchair": "yes", "wikidata": "Q2377845", "wikipedia": "en:Dublin Heuston railway station"}}, {"type": "node", "id": 7176421918, "lat": 53.327928, "lon": -6.2210505, "tags": {"addr:city": "Dublin", "addr:postal_district": "D04", "addr:street": "Sandymount Avenue", "name": "Sandymount", "name:en": "Sandymount", "name:ga": "Dumhach Tr\u00e1", "network": "DART", "operator": "Irish Rail", "public_transport": "station", "railway": "station", "railway:ref": "SMONT", "train": "yes", "website": "https://www.irishrail.ie/en-ie/station/sandymount", "wheelchair": "yes", "wikidata": "Q3970859", "wikipedia": "en:Sandymount railway station"}}, {"type": "node", "id": 7176421919, "lat": 53.3728003, "lon": -6.2049157, "tags": {"addr:city": "Dublin", "addr:street": "Middle Third", "layer": "1", "name": "Killester", "name:en": "Killester", "name:ga": "Cill Easra", "network": "Commuter", "network:wikidata": "Q5155093", "operator": "Iarnr\u00f3d \u00c9ireann", "operator:en": "Irish Rail", "operator:ga": "Iarnr\u00f3d \u00c9ireann", "operator:wikidata": "Q73043", "public_transport": "station", "railway": "station", "railway:ref": "KLSTR", "train": "yes", "wheelchair": "yes", "wikidata": "Q3196643", "wikipedia": "en:Killester railway station"}}, {"type": "node", "id": 7176421920, "lat": 53.3433347, "lon": -6.2484634, "tags": {"addr:city": "Dublin", "addr:street": "Westland Row", "alt_name": "Pearse Station", "level": "1", "name": "Dublin Pearse", "name:en": "Dublin Pearse", "name:ga": "St\u00e1isi\u00fan na bPiarsach", "network": "InterCity;Dublin Commuter;DART", "old_name": "Dublin Westland Row", "operator": "Irish Rail", "phone": "+353 1 7033523", "public_transport": "station", "railway": "station", "railway:ref": "PERSE", "short_name": "Pearse", "train": "yes", "website": "https://www.irishrail.ie/en-ie/Station/dublin-pearse", "wheelchair": "yes", "wikidata": "Q2658249", "wikipedia": "en:Dublin Pearse railway station"}}, {"type": "node", "id": 7176421921, "lat": 53.3337709, "lon": -6.2287109, "tags": {"addr:city": "Dublin", "addr:postal_district": "D04", "addr:street": "Lansdowne Road", "name": "Lansdowne Road", "name:en": "Lansdowne Road", "name:ga": "B\u00f3thar Lansd\u00fan", "network": "Dublin Commuter;DART", "operator": "Irish Rail", "public_transport": "station", "railway": "station", "railway:ref": "LDWNE", "train": "yes", "website": "https://www.irishrail.ie/en-ie/station/lansdowne-road", "wheelchair": "yes", "wikidata": "Q2003842", "wikipedia": "en:Lansdowne Road railway station"}}, {"type": "node", "id": 7176421922, "lat": 53.3207869, "lon": -6.2115522, "tags": {"addr:city": "Dublin", "addr:postal_district": "D04", "addr:street": "Sydney Parade Avenue", "name": "Sydney Parade", "name:en": "Sydney Parade", "name:ga": "Par\u00e1id Sydney", "network": "DART", "operator": "Irish Rail", "public_transport": "station", "railway": "station", "railway:ref": "SIDNY", "train": "yes", "website": "https://www.irishrail.ie/en-ie/station/sydney-parade", "wheelchair": "yes", "wikidata": "Q2397711", "wikipedia": "en:Sydney Parade railway station"}}, {"type": "node", "id": 7184996494, "lat": 53.3398189, "lon": -6.2381879, "tags": {"addr:city": "Dublin", "addr:housename": "Grand Canal Dock station", "addr:street": "Barrow Street", "alt_name": "Barrow Street", "layer": "1", "name": "Grand Canal Dock", "name:ga": "Dug Na Can\u00e1lach M\u00f3ire", "network": "Dublin Commuter;DART", "operator": "Irish Rail", "public_transport": "station", "railway": "station", "railway:ref": "GCDK", "train": "yes", "website": "https://www.irishrail.ie/en-ie/station/grand-canal-dock", "wheelchair": "yes", "wikidata": "Q3113542", "wikipedia": "en:Grand Canal Dock railway station"}}, {"type": "node", "id": 7198243013, "lat": 53.3726218, "lon": -6.2988178, "tags": {"addr:city": "Dublin", "addr:street": "Broombridge Road", "name": "Broombridge", "name:en": "Broombridge", "name:ga": "St\u00e1isi\u00fan Dhroichead Broome", "network": "Dublin Commuter", "operator": "Irish Rail", "phone": "+353-1-8366222", "phone:IE": "0818 366222", "public_transport": "station", "railway": "station", "railway:ref": "BBRDG", "start_date": "1990", "toilets": "no", "train": "yes", "website": "https://www.irishrail.ie/en-ie/station/broombridge", "wheelchair": "yes", "wheelchair:description": "Step-free access to westbound platform from public road and Luas stop. Ramp from public road (very steep) or lift / stairs and bridge to eastbound platform.", "wikidata": "Q3969133", "wikipedia": "en:Broombridge railway station"}}, {"type": "node", "id": 7198335545, "lat": 53.3754061, "lon": -6.3318144, "tags": {"addr:city": "Dublin", "addr:postal_district": "D15", "addr:street": "Ashtown Road", "name": "Ashtown", "name:ga": "Baile an \u00c1isigh", "network": "Commuter", "network:wikidata": "Q5155093", "operator": "Iarnr\u00f3d \u00c9ireann", "operator:en": "Irish Rail", "operator:ga": "Iarnr\u00f3d \u00c9ireann", "operator:wikidata": "Q73043", "public_transport": "station", "railway": "station", "railway:ref": "ASHTN", "train": "yes", "website": "https://www.irishrail.ie/travel-information/Ashtown", "wikidata": "Q3968919", "wikipedia": "en:Ashtown railway station"}}, {"type": "node", "id": 7198337980, "lat": 53.3527247, "lon": -6.2471357, "tags": {"addr:postcode": "D01 V6V6", "addr:street": "Amiens Street", "loc_name": "Connolly Station", "name": "Dublin Connolly", "name:en": "Dublin Connolly", "name:ga": "Baile \u00c1tha Cliath Chonghaile", "network": "Enterprise;InterCity;Dublin Commuter;DART", "old_name": "Dublin Amiens Street", "operator": "Irish Rail", "phone": "+353-1-7032358", "public_transport": "station", "railway": "station", "railway:ref": "CNLLY", "railway:ref:Translink NI Railways": "DN", "ref": "100", "short_name": "Connolly", "start_date": "1844", "train": "yes", "website": "https://www.irishrail.ie/travel-information/dublin-connolly", "wheelchair": "limited", "wikidata": "Q2543742", "wikipedia": "en:Dublin Connolly railway station", "year_built": "1844"}}, {"type": "node", "id": 9123967004, "lat": 53.3752046, "lon": -6.3142835, "tags": {"addr:city": "Dublin", "addr:street": "Royal Canal Avenue", "internet_access": "no", "name": "Pelletstown", "name:en": "Pelletstown", "name:ga": "Baile Pheil\u00e9id", "network": "Commuter", "network:wikidata": "Q5155093", "opening_date": "2021", "operator": "Iarnr\u00f3d \u00c9ireann", "operator:en": "Irish Rail", "operator:ga": "Iarnr\u00f3d \u00c9ireann", "operator:wikidata": "Q73043", "phone": "+353-1-8366222", "phone:IE": "0818 366222", "public_transport": "station", "railway": "station", "railway:ref": "PELTN", "start_date": "2021-09-26", "toilets": "no", "train": "yes", "website": "https://www.irishrail.ie/en-ie/travel-information/find-a-station?key=Pelletstown", "wheelchair": "yes", "wheelchair:description": "Step-free access from Royal Canal Avenue across bridge to eastbound platform. Step-free access from Ashington via ramp to westbound platform. Access via ramp only between platforms.", "wikidata": "Q85792690", "wikipedia": "en:Pelletstown railway station"}}, {"type": "node", "id": 10800545157, "lat": 53.363086, "lon": -6.2587453, "tags": {"addr:city": "Dublin", "addr:street": "Drumcondra Road Lower", "area": "yes", "name": "Drumcondra", "name:ga": "Droim Conrach", "network": "InterCity;Dublin Commuter", "operator": "Irish Rail", "phone": "+353-1-8305311", "public_transport": "station", "railway": "station", "railway:ref": "DCDRA", "train": "yes", "website": "https://www.irishrail.ie/travel-information/drumcondra", "wheelchair": "yes", "wikidata": "Q634947", "wikipedia": "en:Drumcondra railway station"}}, {"type": "node", "id": 10803352579, "lat": 53.3471286, "lon": -6.2543071, "tags": {"addr:city": "Dublin", "addr:street": "George's Quay", "name": "Tara Street", "name:ga": "Sr\u00e1id na Teamhrach", "network": "InterCity;Dublin Commuter;DART", "operator": "Irish Rail", "platforms": "2", "public_transport": "station", "railway": "station", "railway:ref": "TARA", "train": "yes", "wheelchair": "yes", "wikidata": "Q2004945", "wikipedia": "en:Tara Street railway station"}}]}